{
  "norad_id": 57869,
  "name": "STARLINK-30441",
  "history": [
    {
      "epoch": "2026-03-28T14:40:49.749024Z",
      "apogee_km": 483.5815659571899,
      "perigee_km": 482.48240668558174,
      "latitude_deg": 6.755704053883531e-06,
      "longitude_deg": 131.85527766046806,
      "height_km": 482.7234229266735,
      "semi_major_axis_km": 6861.168986321386,
      "eccentricity": 8.01e-05,
      "inclination_deg": 43.0006,
      "raan_deg": 178.0922,
      "arg_perigee_deg": 278.8776,
      "mean_anomaly_deg": 81.1985,
      "mean_motion_rev_day": 15.27585714
    }
  ]
}